start=new Date('2021-12-07T00:00:00.000Z').valueOf();
sats=[{"PERIAPSIS":"546.174","ARG_OF_PERICENTER":"102.5623","DECAY_DATE":null,"CLASSIFICATION_TYPE":"U","TIME_SYSTEM":"UTC","GP_ID":"191235019","RCS_SIZE":"LARGE","APOAPSIS":"548.268","PERIOD":"95.592","SITE":"AFETR","OBJECT_ID":"2021-038AQ","TLE_LINE1":"1 48391U 21038AQ  21340.72998881 -.00000436  00000-0 -10400-4 0  9995","EPOCH":"2021-12-06T17:31:11.033184","FILE":"3234296","CENTER_NAME":"EARTH","RA_OF_ASC_NODE":"117.6088","MEAN_ANOMALY":"257.5535","REV_AT_EPOCH":"3430","MEAN_MOTION_DDOT":"0.0000000000000","BSTAR":"-0.00001040000000","REF_FRAME":"TEME","SEMIMAJOR_AXIS":"6925.356","MEAN_MOTION":"15.06397694","TLE_LINE2":"2 48391  53.0558 117.6088 0001512 102.5623 257.5535 15.06397694 34304","MEAN_ELEMENT_THEORY":"SGP4","ECCENTRICITY":"0.00015120","INCLINATION":"53.0558","COUNTRY_CODE":"US","LAUNCH_DATE":"2021-05-04","OBJECT_TYPE":"PAYLOAD","ELEMENT_SET_NO":"999","EPHEMERIS_TYPE":"0","OBJECT_NAME":"STARLINK-2607","MEAN_MOTION_DOT":"-0.00000436","NORAD_CAT_ID":"48391"},{"CLASSIFICATION_TYPE":"U","TIME_SYSTEM":"UTC","DECAY_DATE":null,"ARG_OF_PERICENTER":"92.2650","PERIAPSIS":"546.199","CENTER_NAME":"EARTH","EPOCH":"2021-12-06T20:36:56.763648","FILE":"3234296","RA_OF_ASC_NODE":"117.0278","PERIOD":"95.592","GP_ID":"191235270","RCS_SIZE":"LARGE","APOAPSIS":"548.214","OBJECT_ID":"2021-038AR","SITE":"AFETR","TLE_LINE1":"1 48392U 21038AR  21340.85899032  .00001116  00000-0  93817-4 0  9995","TLE_LINE2":"2 48392  53.0554 117.0278 0001455  92.2650 267.8506 15.06402259 34325","MEAN_MOTION":"15.06402259","MEAN_ELEMENT_THEORY":"SGP4","ECCENTRICITY":"0.00014550","MEAN_MOTION_DDOT":"0.0000000000000","REV_AT_EPOCH":"3432","MEAN_ANOMALY":"267.8506","REF_FRAME":"TEME","BSTAR":"0.00009381700000","SEMIMAJOR_AXIS":"6925.342","OBJECT_NAME":"STARLINK-2605","MEAN_MOTION_DOT":"0.00001116","NORAD_CAT_ID":"48392","LAUNCH_DATE":"2021-05-04","OBJECT_TYPE":"PAYLOAD","INCLINATION":"53.0554","COUNTRY_CODE":"US","EPHEMERIS_TYPE":"0","ELEMENT_SET_NO":"999"},{"PERIOD":"95.593","RCS_SIZE":"LARGE","GP_ID":"191236021","APOAPSIS":"548.296","OBJECT_ID":"2021-038AS","SITE":"AFETR","TLE_LINE1":"1 48393U 21038AS  21340.85531254  .00000390  00000-0  45078-4 0  9994","CENTER_NAME":"EARTH","EPOCH":"2021-12-06T20:31:39.003456","FILE":"3234296","RA_OF_ASC_NODE":"117.0512","DECAY_DATE":null,"ARG_OF_PERICENTER":"94.1422","PERIAPSIS":"546.166","CLASSIFICATION_TYPE":"U","TIME_SYSTEM":"UTC","LAUNCH_DATE":"2021-05-04","OBJECT_TYPE":"PAYLOAD","INCLINATION":"53.0561","COUNTRY_CODE":"US","EPHEMERIS_TYPE":"0","ELEMENT_SET_NO":"999","OBJECT_NAME":"STARLINK-2602","MEAN_MOTION_DOT":"0.00000390","NORAD_CAT_ID":"48393","REV_AT_EPOCH":"3432","MEAN_MOTION_DDOT":"0.0000000000000","MEAN_ANOMALY":"265.9742","BSTAR":"0.00004507800000","REF_FRAME":"TEME","SEMIMAJOR_AXIS":"6925.366","MEAN_MOTION":"15.06394311","TLE_LINE2":"2 48393  53.0561 117.0512 0001538  94.1422 265.9742 15.06394311 34325","MEAN_ELEMENT_THEORY":"SGP4","ECCENTRICITY":"0.00015380"},{"EPHEMERIS_TYPE":"0","ELEMENT_SET_NO":"999","OBJECT_TYPE":"PAYLOAD","LAUNCH_DATE":"2021-05-04","INCLINATION":"53.0549","COUNTRY_CODE":"US","NORAD_CAT_ID":"48394","MEAN_MOTION_DOT":"0.00000982","OBJECT_NAME":"STARLINK-2573","SEMIMAJOR_AXIS":"6925.362","REF_FRAME":"TEME","BSTAR":"0.00008480300000","REV_AT_EPOCH":"3432","MEAN_MOTION_DDOT":"0.0000000000000","MEAN_ANOMALY":"264.0793","ECCENTRICITY":"0.00014150","MEAN_ELEMENT_THEORY":"SGP4","MEAN_MOTION":"15.06395760","TLE_LINE2":"2 48394  53.0549 117.0578 0001415  96.0357 264.0793 15.06395760 34321","TLE_LINE1":"1 48394U 21038AT  21340.85162961  .00000982  00000-0  84803-4 0  9996","SITE":"AFETR","OBJECT_ID":"2021-038AT","PERIOD":"95.592","APOAPSIS":"548.206","GP_ID":"191234769","RCS_SIZE":"LARGE","RA_OF_ASC_NODE":"117.0578","CENTER_NAME":"EARTH","FILE":"3234296","EPOCH":"2021-12-06T20:26:20.798304","DECAY_DATE":null,"ARG_OF_PERICENTER":"96.0357","PERIAPSIS":"546.247","TIME_SYSTEM":"UTC","CLASSIFICATION_TYPE":"U"},{"MEAN_MOTION":"15.06387995","TLE_LINE2":"2 48395  53.0543 121.5956 0001349  87.8544 272.2599 15.06387995 33547","MEAN_ELEMENT_THEORY":"SGP4","ECCENTRICITY":"0.00013490","MEAN_ANOMALY":"272.2599","REV_AT_EPOCH":"3354","MEAN_MOTION_DDOT":"0.0000000000000","BSTAR":"-0.00004096200000","REF_FRAME":"TEME","SEMIMAJOR_AXIS":"6925.385","OBJECT_NAME":"STARLINK-2574","MEAN_MOTION_DOT":"-0.00000891","NORAD_CAT_ID":"48395","COUNTRY_CODE":"US","INCLINATION":"53.0543","LAUNCH_DATE":"2021-05-04","OBJECT_TYPE":"PAYLOAD","ELEMENT_SET_NO":"999","EPHEMERIS_TYPE":"0","CLASSIFICATION_TYPE":"U","TIME_SYSTEM":"UTC","PERIAPSIS":"546.316","ARG_OF_PERICENTER":"87.8544","DECAY_DATE":null,"EPOCH":"2021-12-05T20:10:39.714816","FILE":"3233981","CENTER_NAME":"EARTH","RA_OF_ASC_NODE":"121.5956","RCS_SIZE":"LARGE","GP_ID":"191182369","APOAPSIS":"548.185","PERIOD":"95.593","SITE":"AFETR","OBJECT_ID":"2021-038AU","TLE_LINE1":"1 48395U 21038AU  21339.84073744 -.00000891  00000-0 -40962-4 0  9993"},{"NORAD_CAT_ID":"48396","OBJECT_NAME":"STARLINK-2575","MEAN_MOTION_DOT":"-0.00000552","ELEMENT_SET_NO":"999","EPHEMERIS_TYPE":"0","INCLINATION":"53.0564","COUNTRY_CODE":"US","LAUNCH_DATE":"2021-05-04","OBJECT_TYPE":"PAYLOAD","ECCENTRICITY":"0.00014530","MEAN_MOTION":"15.06396524","TLE_LINE2":"2 48396  53.0564 117.9628 0001453 100.9096 259.2057 15.06396524 34296","MEAN_ELEMENT_THEORY":"SGP4","BSTAR":"-0.00001817200000","REF_FRAME":"TEME","SEMIMAJOR_AXIS":"6925.359","MEAN_ANOMALY":"259.2057","REV_AT_EPOCH":"3429","MEAN_MOTION_DDOT":"0.0000000000000","RA_OF_ASC_NODE":"117.9628","EPOCH":"2021-12-06T15:34:24.961728","FILE":"3234296","CENTER_NAME":"EARTH","SITE":"AFETR","OBJECT_ID":"2021-038AV","TLE_LINE1":"1 48396U 21038AV  21340.64890002 -.00000552  00000-0 -18172-4 0  9990","GP_ID":"191235771","RCS_SIZE":"LARGE","APOAPSIS":"548.230","PERIOD":"95.592","CLASSIFICATION_TYPE":"U","TIME_SYSTEM":"UTC","PERIAPSIS":"546.218","DECAY_DATE":null,"ARG_OF_PERICENTER":"100.9096"},{"EPOCH":"2021-12-06T15:29:06.693504","FILE":"3234296","CENTER_NAME":"EARTH","RA_OF_ASC_NODE":"117.9970","GP_ID":"191235521","RCS_SIZE":"LARGE","APOAPSIS":"548.238","PERIOD":"95.592","OBJECT_ID":"2021-038AW","SITE":"AFETR","TLE_LINE1":"1 48397U 21038AW  21340.64521636 -.00000349  00000-0 -45611-5 0  9998","CLASSIFICATION_TYPE":"U","TIME_SYSTEM":"UTC","PERIAPSIS":"546.214","ARG_OF_PERICENTER":"93.2450","DECAY_DATE":null,"OBJECT_NAME":"STARLINK-2590","MEAN_MOTION_DOT":"-0.00000349","NORAD_CAT_ID":"48397","COUNTRY_CODE":"US","INCLINATION":"53.0558","LAUNCH_DATE":"2021-05-04","OBJECT_TYPE":"PAYLOAD","ELEMENT_SET_NO":"999","EPHEMERIS_TYPE":"0","TLE_LINE2":"2 48397  53.0558 117.9970 0001461  93.2450 266.8706 15.06395863 34297","MEAN_MOTION":"15.06395863","MEAN_ELEMENT_THEORY":"SGP4","ECCENTRICITY":"0.00014610","MEAN_ANOMALY":"266.8706","MEAN_MOTION_DDOT":"0.0000000000000","REV_AT_EPOCH":"3429","BSTAR":"-0.00000456110000","REF_FRAME":"TEME","SEMIMAJOR_AXIS":"6925.361"},{"MEAN_MOTION_DOT":"-0.00000334","OBJECT_NAME":"STARLINK-2588","NORAD_CAT_ID":"48398","INCLINATION":"53.0551","COUNTRY_CODE":"US","OBJECT_TYPE":"PAYLOAD","LAUNCH_DATE":"2021-05-04","ELEMENT_SET_NO":"999","EPHEMERIS_TYPE":"0","MEAN_ELEMENT_THEORY":"SGP4","MEAN_MOTION":"15.06401104","TLE_LINE2":"2 48398  53.0551 118.0057 0001570  89.7430 270.3739 15.06401104 34290","ECCENTRICITY":"0.00015700","MEAN_ANOMALY":"270.3739","MEAN_MOTION_DDOT":"0.0000000000000","REV_AT_EPOCH":"3429","SEMIMAJOR_AXIS":"6925.345","REF_FRAME":"TEME","BSTAR":"-0.00000349440000","FILE":"3234296","EPOCH":"2021-12-06T15:23:47.986368","CENTER_NAME":"EARTH","RA_OF_ASC_NODE":"118.0057","APOAPSIS":"548.297","GP_ID":"191234269","RCS_SIZE":"LARGE","PERIOD":"95.592","TLE_LINE1":"1 48398U 21038AX  21340.64152762 -.00000334  00000-0 -34944-5 0  9990","SITE":"AFETR","OBJECT_ID":"2021-038AX","TIME_SYSTEM":"UTC","CLASSIFICATION_TYPE":"U","PERIAPSIS":"546.123","DECAY_DATE":null,"ARG_OF_PERICENTER":"89.7430"},{"NORAD_CAT_ID":"48399","MEAN_MOTION_DOT":"-0.00002731","OBJECT_NAME":"STARLINK-2587","ELEMENT_SET_NO":"999","EPHEMERIS_TYPE":"0","INCLINATION":"53.0563","COUNTRY_CODE":"US","OBJECT_TYPE":"PAYLOAD","LAUNCH_DATE":"2021-05-04","ECCENTRICITY":"0.00015370","MEAN_ELEMENT_THEORY":"SGP4","MEAN_MOTION":"15.06408948","TLE_LINE2":"2 48399  53.0563 121.3094 0001537  91.3167 268.7998 15.06408948 34179","SEMIMAJOR_AXIS":"6925.321","BSTAR":"-0.00016444000000","REF_FRAME":"TEME","MEAN_ANOMALY":"268.7998","REV_AT_EPOCH":"3417","MEAN_MOTION_DDOT":"0.0000000000000","RA_OF_ASC_NODE":"121.3094","FILE":"3234035","EPOCH":"2021-12-05T21:47:33.408384","CENTER_NAME":"EARTH","TLE_LINE1":"1 48399U 21038AY  21339.90802556 -.00002731  00000-0 -16444-3 0  9997","OBJECT_ID":"2021-038AY","SITE":"AFETR","APOAPSIS":"548.251","GP_ID":"191205920","RCS_SIZE":"LARGE","PERIOD":"95.592","TIME_SYSTEM":"UTC","CLASSIFICATION_TYPE":"U","PERIAPSIS":"546.122","ARG_OF_PERICENTER":"91.3167","DECAY_DATE":null},{"RA_OF_ASC_NODE":"121.6170","CENTER_NAME":"EARTH","FILE":"3233971","EPOCH":"2021-12-05T20:06:42.933888","TLE_LINE1":"1 48400U 21038AZ  21339.83799692 -.00000906  00000-0 -41946-4 0  9996","SITE":"AFETR","OBJECT_ID":"2021-038AZ","PERIOD":"95.592","APOAPSIS":"548.500","RCS_SIZE":"LARGE","GP_ID":"191182377","TIME_SYSTEM":"UTC","CLASSIFICATION_TYPE":"U","ARG_OF_PERICENTER":"106.6473","DECAY_DATE":null,"PERIAPSIS":"545.939","NORAD_CAT_ID":"48400","MEAN_MOTION_DOT":"-0.00000906","OBJECT_NAME":"STARLINK-2576","EPHEMERIS_TYPE":"0","ELEMENT_SET_NO":"999","OBJECT_TYPE":"PAYLOAD","LAUNCH_DATE":"2021-05-04","COUNTRY_CODE":"US","INCLINATION":"53.0555","ECCENTRICITY":"0.00018490","MEAN_ELEMENT_THEORY":"SGP4","TLE_LINE2":"2 48400  53.0555 121.6170 0001849 106.6473 253.4719 15.06397913 33548","MEAN_MOTION":"15.06397913","SEMIMAJOR_AXIS":"6925.355","REF_FRAME":"TEME","BSTAR":"-0.00004194600000","REV_AT_EPOCH":"3354","MEAN_MOTION_DDOT":"0.0000000000000","MEAN_ANOMALY":"253.4719"}];
